GLOBALSTAR M001 [-]     
1 25162U 98008A   24075.61462104 -.00000057  00000+0  30466-3 0  9997
2 25162  52.0012 227.9003 0001763  39.8717  86.4253 12.38179166186909
GLOBALSTAR M004 [-]     
1 25163U 98008B   24075.83747873 -.00000046  00000+0  31718-3 0  9990
2 25163  52.0024  12.4223 0003178   2.0811  32.9108 12.63352669203750
GLOBALSTAR M002 [-]     
1 25164U 98008C   24075.90797208 -.00000078  00000+0 -25198-4 0  9998
2 25164  52.0025 309.2572 0001939  44.4206 315.6769 11.61498798130818
GLOBALSTAR M003 [-]     
1 25165U 98008D   24076.19838193  .00000045  00000+0  14309-2 0  9992
2 25165  51.9865 357.0006 0008436  91.0790  56.8551 12.11985649177778
GLOBALSTAR M014 [-]     
1 25306U 98023A   24075.90978477 -.00000061  00000+0  31633-3 0  9993
2 25306  51.9812 242.1069 0000684 164.3886   4.2706 11.65465747137727
GLOBALSTAR M006 [-]     
1 25307U 98023B   24076.04394884 -.00000048  00000+0  55776-3 0  9993
2 25307  51.9918 277.1214 0004019  18.0776 151.6860 11.58157668163857
GLOBALSTAR M015 [-]     
1 25308U 98023C   24076.06084524 -.00000119  00000+0 -10333-2 0  9992
2 25308  51.9860 354.5518 0012608 343.3555 118.9882 11.48852421141790
GLOBALSTAR M008 [-]     
1 25309U 98023D   24076.22297444 -.00000082  00000+0  10980-3 0  9995
2 25309  51.9958  85.7724 0002296 290.6726 151.6571 12.36038193181521
